     2              NAVIGATION DATA                         RINEX VERSION / TYPE
CCRINEXN V1.6.0 UX  CDDIS               23-APR-24 11:42     PGM / RUN BY / DATE 
IGS BROADCAST EPHEMERIS FILE                                COMMENT             
    0.3725D-07  0.7451D-08 -0.1788D-06  0.0000D+00          ION ALPHA           
    0.1393D+06  0.6554D+05 -0.2621D+06  0.2621D+06          ION BETA            
    0.465661287308D-08 0.142108547152D-13   405504     2311 DELTA-UTC: A0,A1,T,W
    18                                                      LEAP SECONDS        
                                                            END OF HEADER       
23 24  4 23  0  0  0.0 0.207565259188D-03 0.932232069317D-11 0.000000000000D+00
    0.500000000000D+01 0.363437500000D+02 0.410338520818D-08-0.298747608599D+01
    0.189058482647D-05 0.408134062309D-02 0.992417335510D-05 0.515371148491D+04
    0.172800000000D+06-0.707805156708D-07-0.261638872234D+01-0.521540641785D-07
    0.978856229108D+00 0.198062500000D+03-0.295848704178D+01-0.767389107694D-08
    0.469305262734D-09 0.100000000000D+01 0.231100000000D+04 0.000000000000D+00
    0.200000000000D+01 0.000000000000D+00-0.838190317154D-08 0.517000000000D+03
    0.167418000000D+06 0.400000000000D+01 0.000000000000D+00 0.000000000000D+00
24 24  4 23  0  0  0.0-0.462368596345D-03-0.420641299570D-11 0.000000000000D+00
    0.660000000000D+02-0.328750000000D+02 0.484698761077D-08-0.165257870223D+01
   -0.170804560184D-05 0.152119667036D-01 0.103544443846D-04 0.515372280502D+04
    0.172800000000D+06 0.363215804100D-06-0.589067554171D+00-0.104308128357D-06
    0.934161169117D+00 0.162968750000D+03 0.973980770803D+00-0.800747640068D-08
   -0.541093967307D-09 0.100000000000D+01 0.231100000000D+04 0.000000000000D+00
    0.200000000000D+01 0.000000000000D+00 0.232830643654D-08 0.660000000000D+02
    0.165618000000D+06 0.400000000000D+01 0.000000000000D+00 0.000000000000D+00
25 24  4 23  0  0  0.0 0.494330190122D-03 0.795807864051D-12 0.000000000000D+00
    0.113000000000D+03 0.107031250000D+03 0.444375652887D-08 0.282842186559D+01
    0.547803938389D-05 0.117734295782D-01 0.810250639916D-05 0.515358738136D+04
    0.172800000000D+06 0.651925802231D-07 0.536230549001D+00-0.115483999252D-06
    0.950960834650D+00 0.215250000000D+03 0.108794986312D+01-0.791461538978D-08
    0.408231290186D-09 0.100000000000D+01 0.231100000000D+04 0.000000000000D+00
    0.200000000000D+01 0.000000000000D+00 0.558793544769D-08 0.113000000000D+03
    0.165618000000D+06 0.400000000000D+01 0.000000000000D+00 0.000000000000D+00
26 24  4 23  0  0  0.0 0.163027551025D-03-0.522959453519D-11 0.000000000000D+00
    0.168000000000D+03 0.101312500000D+03 0.498092176110D-08 0.202066636260D+01
    0.523403286934D-05 0.885086762719D-02 0.842846930027D-05 0.515363219452D+04
    0.172800000000D+06-0.219792127609D-06 0.474402892579D+00-0.130385160446D-07
    0.931767233880D+00 0.201718750000D+03 0.540632195935D+00-0.835177645644D-08
    0.312513017422D-09 0.100000000000D+01 0.231100000000D+04 0.000000000000D+00
    0.200000000000D+01 0.000000000000D+00 0.698491930962D-08 0.168000000000D+03
    0.165618000000D+06 0.400000000000D+01 0.000000000000D+00 0.000000000000D+00
28 24  4 23  0  0  0.0-0.214160885662D-03-0.154614099301D-10 0.000000000000D+00
    0.250000000000D+02-0.237500000000D+02 0.428446417942D-08 0.215644089550D+01
   -0.120140612125D-05 0.419944874011D-03 0.107884407043D-04 0.515363892937D+04
    0.172800000000D+06 0.428408384323D-07-0.526151785134D+00 0.707805156708D-07
    0.961645580147D+00 0.173531250000D+03 0.173898514373D+01-0.785889878325D-08
   -0.442161274935D-09 0.100000000000D+01 0.231100000000D+04 0.000000000000D+00
    0.200000000000D+01 0.000000000000D+00-0.931322574616D-08 0.281000000000D+03
    0.165618000000D+06 0.400000000000D+01 0.000000000000D+00 0.000000000000D+00
29 24  4 23  0  0  0.0-0.601006671786D-03 0.125055521494D-11 0.000000000000D+00
    0.620000000000D+02-0.338125000000D+02 0.464555064869D-08 0.207034742777D+00
   -0.178068876266D-05 0.282798067201D-02 0.202469527721D-05 0.515360233307D+04
    0.172800000000D+06 0.465661287308D-07 0.167681434817D+01 0.558793544769D-08
    0.971500394662D+00 0.343750000000D+03 0.250613156082D+01-0.842499379195D-08
   -0.496449250533D-10 0.100000000000D+01 0.231100000000D+04 0.000000000000D+00
    0.200000000000D+01 0.000000000000D+00-0.977888703346D-08 0.620000000000D+02
    0.165618000000D+06 0.400000000000D+01 0.000000000000D+00 0.000000000000D+00
30 24  4 23  0  0  0.0-0.401259865612D-03 0.568434188608D-11 0.000000000000D+00
    0.400000000000D+02-0.141875000000D+02 0.472698261208D-08-0.282599542724D+01
   -0.888481736183D-06 0.706466659904D-02 0.116899609566D-04 0.515366446876D+04
    0.172800000000D+06 0.130385160446D-07-0.491528465539D+00-0.931322574615D-07
    0.935708415646D+00 0.139687500000D+03-0.248375554854D+01-0.799569019545D-08
   -0.458947688442D-09 0.100000000000D+01 0.231100000000D+04 0.000000000000D+00
    0.200000000000D+01 0.000000000000D+00 0.372529029846D-08 0.400000000000D+02
    0.165618000000D+06 0.400000000000D+01 0.000000000000D+00 0.000000000000D+00
31 24  4 23  0  0  0.0-0.227978453040D-03 0.000000000000D+00 0.000000000000D+00
    0.350000000000D+02-0.181875000000D+02 0.435589572625D-08 0.273782060012D+01
   -0.107847154141D-05 0.104967886582D-01 0.110529363155D-04 0.515371715736D+04
    0.172800000000D+06-0.204890966415D-07-0.471317560314D+00-0.115483999252D-06
    0.954573234355D+00 0.163343750000D+03 0.670016190647D+00-0.777960976626D-08
   -0.441804117201D-09 0.100000000000D+01 0.231100000000D+04 0.000000000000D+00
    0.200000000000D+01 0.000000000000D+00-0.130385160446D-07 0.350000000000D+02
    0.165618000000D+06 0.400000000000D+01 0.000000000000D+00 0.000000000000D+00
11 24  4 23  0 29 36.0-0.643741339445D-03-0.102318153950D-10 0.000000000000D+00
    0.700000000000D+01-0.968125000000D+02 0.429232164957D-08-0.301276248748D+00
   -0.496767461300D-05 0.123387749773D-02 0.111665576696D-04 0.515370083237D+04
    0.174576000000D+06-0.149011611938D-07 0.269608304261D+01 0.130385160446D-07
    0.966447260568D+00 0.168093750000D+03-0.253975982109D+01-0.788854287519D-08
   -0.170721396946D-09 0.100000000000D+01 0.231100000000D+04 0.000000000000D+00
    0.200000000000D+01 0.000000000000D+00-0.838190317154D-08 0.775000000000D+03
    0.167418000000D+06 0.400000000000D+01 0.000000000000D+00 0.000000000000D+00
14 24  4 23  0 59 44.0 0.383057165891D-03 0.943600753089D-11 0.000000000000D+00
    0.158000000000D+03 0.120218750000D+03 0.461054919074D-08-0.287663751255D+01
    0.627525150776D-05 0.431238906458D-02 0.776909291744D-05 0.515370370293D+04
    0.176384000000D+06 0.298023223877D-07 0.578463725599D+00-0.745058059692D-08
    0.946343689642D+00 0.224406250000D+03-0.293339446230D+01-0.816569727693D-08
    0.468948105000D-09 0.100000000000D+01 0.231100000000D+04 0.000000000000D+00
    0.200000000000D+01 0.000000000000D+00-0.791624188423D-08 0.926000000000D+03
    0.169218000000D+06 0.400000000000D+01 0.000000000000D+00 0.000000000000D+00
13 24  4 23  1 59 28.0 0.644924584776D-03 0.306954461848D-11 0.000000000000D+00
    0.175000000000D+03-0.255312500000D+02 0.483520140555D-08 0.938200158660D+00
   -0.116229057312D-05 0.794759718701D-02 0.495836138725D-05 0.515364966965D+04
    0.179968000000D+06-0.614672899246D-07-0.139980853210D+01 0.109896063805D-06
    0.970827961441D+00 0.290312500000D+03 0.924681894450D+00-0.835249077191D-08
   -0.409302763389D-09 0.100000000000D+01 0.231100000000D+04 0.000000000000D+00
    0.200000000000D+01 0.000000000000D+00-0.116415321827D-07 0.175000000000D+03
    0.172818000000D+06 0.400000000000D+01 0.000000000000D+00 0.000000000000D+00
 3 24  4 23  1 59 44.0 0.325532164425D-03 0.206910044653D-10 0.000000000000D+00
    0.530000000000D+02 0.395312500000D+02 0.412660046090D-08-0.204739460444D+01
    0.205449759960D-05 0.534952117596D-02 0.947155058384D-05 0.515373862266D+04
    0.179984000000D+06 0.689178705216D-07-0.258506737123D+01 0.186264514923D-08
    0.984027621112D+00 0.210250000000D+03 0.106945441660D+01-0.767567686561D-08
    0.576095425258D-09 0.100000000000D+01 0.231100000000D+04 0.000000000000D+00
    0.200000000000D+01 0.000000000000D+00 0.186264514923D-08 0.530000000000D+02
    0.174198000000D+06 0.400000000000D+01 0.000000000000D+00 0.000000000000D+00
 6 24  4 23  1 59 44.0 0.308819115162D-03-0.184172677109D-10 0.000000000000D+00
    0.170000000000D+02-0.925312500000D+02 0.373015537594D-08-0.766909459463D+00
   -0.508874654770D-05 0.305289530661D-02 0.106487423181D-04 0.515360900879D+04
    0.179984000000D+06 0.558793544769D-08 0.266222776818D+01-0.260770320892D-07
    0.989935963949D+00 0.187500000000D+03-0.697577611148D+00-0.768603443990D-08
   -0.129648257513D-09 0.100000000000D+01 0.231100000000D+04 0.000000000000D+00
    0.200000000000D+01 0.000000000000D+00 0.419095158577D-08 0.170000000000D+02
    0.174048000000D+06 0.400000000000D+01 0.000000000000D+00 0.000000000000D+00
 8 24  4 23  1 59 44.0 0.138119328767D-03 0.222826201934D-10 0.000000000000D+00
    0.360000000000D+02-0.110625000000D+02 0.499163649312D-08 0.121046580417D+01
   -0.569969415665D-06 0.946246064268D-02 0.171177089214D-05 0.515361829758D+04
    0.179984000000D+06-0.130385160446D-07 0.156756994436D+01 0.987201929092D-07
    0.953349019156D+00 0.342406250000D+03 0.356389349641D+00-0.864357432528D-08
   -0.100361323309D-09 0.100000000000D+01 0.231100000000D+04 0.000000000000D+00
    0.200000000000D+01 0.000000000000D+00 0.465661287308D-08 0.360000000000D+02
    0.177912000000D+06 0.400000000000D+01 0.000000000000D+00 0.000000000000D+00
